NORAD_CAT_ID,OBJECT_NAME,OBJECT_TYPE,EPOCH,MEAN_MOTION,ECCENTRICITY,INCLINATION,RA_OF_ASC_NODE,ARG_OF_PERICENTER,MEAN_ANOMALY,BSTAR,MEAN_MOTION_DOT,MEAN_MOTION_DDOT,TLE_LINE0,TLE_LINE1,TLE_LINE2,SEMIMAJOR_AXIS,PERIOD,APOGEE,PERIGEE,DECAYED
53893.0,STARLINK-5052,PAYLOAD,2024-08-12 17:07:41,15.08874559,7.28e-05,53.2171,20.8055,70.0629,290.0441,0.00096223,0.00015074,0.0,0 STARLINK-5052,1 53893U 22119H   24225.71367543  .00015074  00000-0  96223-3 0  9996,2 53893  53.2171  20.8055 0000728  70.0629 290.0441 15.08874559104614,6917.775,95.435,540.143,539.136,0.0
53893.0,STARLINK-5052,PAYLOAD,2024-08-12 21:53:50,15.08890675,0.0001641,53.2185,19.9137,91.0473,269.0708,0.0012859,0.00020265,0.0,0 STARLINK-5052,1 53893U 22119H   24225.91238971  .00020265  00000-0  12859-2 0  9990,2 53893  53.2185  19.9137 0001641  91.0473 269.0708 15.08890675105063,6917.726,95.434,540.726,538.455,0.0
53893.0,STARLINK-5052,PAYLOAD,2024-08-13 10:36:56,15.088309,0.0003127,53.209,17.53,102.1001,258.0341,-0.00047291,-7.806e-05,0.0,0 STARLINK-5052,1 53893U 22119H   24226.44232245 -.00007806  00000-0 -47291-3 0  9994,2 53893  53.2090  17.5300 0003127 102.1001 258.0341 15.08830900104724,6917.908,95.438,541.936,537.61,0.0
53893.0,STARLINK-5052,PAYLOAD,2024-08-13 20:09:16,15.08817761,0.0001288,53.2173,15.7513,65.3682,294.7444,-0.00047627,-7.855e-05,0.0,0 STARLINK-5052,1 53893U 22119H   24226.83977331 -.00007855  00000-0 -47627-3 0  9996,2 53893  53.2173  15.7513 0001288  65.3682 294.7444 15.08817761104780,6917.948,95.439,540.704,538.922,0.0
53893.0,STARLINK-5052,PAYLOAD,2024-08-14 10:27:44,15.08830968,0.000128,53.2192,13.0732,62.672,297.4402,0.0004856,7.447e-05,0.0,0 STARLINK-5052,1 53893U 22119H   24227.43593701  .00007447  00000-0  48560-3 0  9990,2 53893  53.2192  13.0732 0001280  62.6720 297.4402 15.08830968104878,6917.908,95.438,540.658,538.888,0.0
53893.0,STARLINK-5052,PAYLOAD,2024-08-14 13:38:31,15.08839109,0.0001268,53.2178,12.4789,62.3853,297.7268,0.0008076,0.00012588,0.0,0 STARLINK-5052,1 53893U 22119H   24227.56841634  .00012588  00000-0  80760-3 0  9995,2 53893  53.2178  12.4789 0001268  62.3853 297.7268 15.08839109105316,6917.883,95.438,540.625,538.871,0.0
53893.0,STARLINK-5052,PAYLOAD,2024-08-14 15:13:54,15.08846661,0.0001306,53.2177,12.1817,56.9132,303.1985,0.0013175,0.00020746,0.0,0 STARLINK-5052,1 53893U 22119H   24227.63465730  .00020746  00000-0  13175-2 0  9992,2 53893  53.2177  12.1817 0001306  56.9132 303.1985 15.08846661104909,6917.86,95.437,540.629,538.822,0.0
53893.0,STARLINK-5052,PAYLOAD,2024-08-15 16:40:03,15.08861004,0.0001252,53.2166,7.4241,37.4161,322.6918,0.00099012,0.00015514,0.0,0 STARLINK-5052,1 53893U 22119H   24228.69449049  .00015514  00000-0  99012-3 0  9996,2 53893  53.2166   7.4241 0001252  37.4161 322.6918 15.08861004105069,6917.816,95.436,540.547,538.815,0.0
53893.0,STARLINK-5052,PAYLOAD,2024-08-17 08:24:42,15.08848858,0.0002352,53.2172,359.9904,318.2808,41.8004,0.00062535,9.681e-05,0.0,0 STARLINK-5052,1 53893U 22119H   24230.35049697  .00009681  00000-0  62535-3 0  9995,2 53893  53.2172 359.9904 0002352 318.2808  41.8004 15.08848858105313,6917.853,95.437,541.345,538.091,0.0
53893.0,STARLINK-5052,PAYLOAD,2024-08-18 13:01:38,15.08850634,0.0001339,53.218,354.6402,67.4672,292.6462,0.0003353,5.054e-05,0.0,0 STARLINK-5052,1 53893U 22119H   24231.54281065  .00005054  00000-0  33530-3 0  9997,2 53893  53.2180 354.6402 0001339  67.4672 292.6462 15.08850634105491,6917.848,95.437,540.639,538.787,0.0
53893.0,STARLINK-5052,PAYLOAD,2024-08-18 14:37:01,15.08854281,0.0001827,53.2185,354.344,92.0849,268.0353,0.00036016,5.451e-05,0.0,0 STARLINK-5052,1 53893U 22119H   24231.60904797  .00005451  00000-0  36016-3 0  9991,2 53893  53.2185 354.3440 0001827  92.0849 268.0353 15.08854281105923,6917.837,95.437,540.966,538.438,0.0
53893.0,STARLINK-5052,PAYLOAD,2024-08-19 14:27:48,15.0884502,9.63e-05,53.218,349.88,97.302,262.8081,6.2844e-05,7.13e-06,0.0,0 STARLINK-5052,1 53893U 22119H   24232.60264846  .00000713  00000-0  62844-4 0  9991,2 53893  53.2180 349.8800 0000963  97.3020 262.8081 15.08845020106074,6917.865,95.437,540.396,539.064,0.0
53893.0,STARLINK-5052,PAYLOAD,2024-08-19 17:38:35,15.08844775,0.0001484,53.2178,349.2844,109.8271,250.2881,0.00010406,1.369e-05,0.0,0 STARLINK-5052,1 53893U 22119H   24232.73512888  .00001369  00000-0  10406-3 0  9991,2 53893  53.2178 349.2844 0001484 109.8271 250.2881 15.08844775105679,6917.866,95.437,540.757,538.704,0.0
53893.0,STARLINK-5052,PAYLOAD,2024-08-20 14:18:35,15.08853015,0.0001562,53.218,345.4193,103.1095,257.0071,3.8183e-05,3.2e-06,0.0,0 STARLINK-5052,1 53893U 22119H   24233.59624315  .00000320  00000-0  38183-4 0  9994,2 53893  53.2180 345.4193 0001562 103.1095 257.0071 15.08853015106220,6917.841,95.437,540.786,538.625,0.0
53893.0,STARLINK-5052,PAYLOAD,2024-08-21 12:34:00,15.08830948,0.0001469,53.2172,341.2582,92.5015,267.6146,7.4853e-05,9.03e-06,0.0,0 STARLINK-5052,1 53893U 22119H   24234.52361963  .00000903  00000-0  74853-4 0  9996,2 53893  53.2172 341.2582 0001469  92.5015 267.6146 15.08830948105944,6917.908,95.438,540.789,538.757,0.0
53893.0,STARLINK-5052,PAYLOAD,2024-08-21 14:09:23,15.08831472,0.0001456,53.2172,340.9611,91.1818,268.9341,8.1996e-05,1.017e-05,0.0,0 STARLINK-5052,1 53893U 22119H   24234.58985992  .00001017  00000-0  81996-4 0  9999,2 53893  53.2172 340.9611 0001456  91.1818 268.9341 15.08831472106377,6917.906,95.438,540.779,538.764,0.0
